{
    "links": {
        "self": "http://www.neowsapp.com/rest/v1/neo/3840723?api_key=iIulBulltgU6a56xZRHN4H3l9WmuAYTsLGpBGhQ2"
    },
    "id": "3840723",
    "neo_reference_id": "3840723",
    "name": "(2019 FT1)",
    "designation": "2019 FT1",
    "nasa_jpl_url": "http://ssd.jpl.nasa.gov/sbdb.cgi?sstr=3840723",
    "absolute_magnitude_h": 27.0,
    "estimated_diameter": {
        "kilometers": {
            "estimated_diameter_min": 0.0105816886,
            "estimated_diameter_max": 0.023661375
        },
        "meters": {
            "estimated_diameter_min": 10.5816885933,
            "estimated_diameter_max": 23.6613750114
        },
        "miles": {
            "estimated_diameter_min": 0.0065751544,
            "estimated_diameter_max": 0.0147024923
        },
        "feet": {
            "estimated_diameter_min": 34.7168272045,
            "estimated_diameter_max": 77.6291855923
        }
    },
    "is_potentially_hazardous_asteroid": false,
    "close_approach_data": [
        {
            "close_approach_date": "1949-04-02",
            "close_approach_date_full": "1949-Apr-02 01:00",
            "epoch_date_close_approach": -654822000000,
            "relative_velocity": {
                "kilometers_per_second": "14.3510130885",
                "kilometers_per_hour": "51663.6471187501",
                "miles_per_hour": "32101.7811777589"
            },
            "miss_distance": {
                "astronomical": "0.1366879578",
                "lunar": "53.1716155842",
                "kilometers": "20448227.341529886",
                "miles": "12705939.2877929868"
            },
            "orbiting_body": "Earth"
        },
        {
            "close_approach_date": "2019-03-22",
            "close_approach_date_full": "2019-Mar-22 20:06",
            "epoch_date_close_approach": 1553285160000,
            "relative_velocity": {
                "kilometers_per_second": "10.7927434124",
                "kilometers_per_hour": "38853.8762845975",
                "miles_per_hour": "24142.2877391712"
            },
            "miss_distance": {
                "astronomical": "0.0165823416",
                "lunar": "6.4505308824",
                "kilometers": "2480682.982972392",
                "miles": "1541424.9287953296"
            },
            "orbiting_body": "Earth"
        },
        {
            "close_approach_date": "2021-12-19",
            "close_approach_date_full": "2021-Dec-19 10:33",
            "epoch_date_close_approach": 1639909980000,
            "relative_velocity": {
                "kilometers_per_second": "14.4476212256",
                "kilometers_per_hour": "52011.4364122583",
                "miles_per_hour": "32317.8839196057"
            },
            "miss_distance": {
                "astronomical": "0.1581689393",
                "lunar": "61.5277173877",
                "kilometers": "23661736.419439291",
                "miles": "14702721.2367965758"
            },
            "orbiting_body": "Earth"
        }
    ],
    "orbital_data": {
        "orbit_id": "7",
        "orbit_determination_date": "2019-04-18 07:57:19",
        "first_observation_date": "2019-03-29",
        "last_observation_date": "2019-04-09",
        "data_arc_in_days": 11,
        "observations_used": 44,
        "orbit_uncertainty": "7",
        "minimum_orbit_intersection": ".00543928",
        "jupiter_tisserand_invariant": "3.587",
        "epoch_osculation": "2459000.5",
        "eccentricity": ".5519562523058382",
        "semi_major_axis": "2.045071094173175",
        "inclination": "4.517913415593634",
        "ascending_node_longitude": "183.2894533292247",
        "orbital_period": "1068.220829874457",
        "perihelion_distance": ".9162813173343494",
        "perihelion_argument": "316.6141401830352",
        "aphelion_distance": "3.173860871012001",
        "perihelion_time": "2458534.460031508251",
        "mean_anomaly": "157.0596490584699",
        "mean_motion": ".3370089684941917",
        "equinox": "J2000",
        "orbit_class": {
            "orbit_class_type": "APO",
            "orbit_class_description": "Near-Earth asteroid orbits which cross the Earth’s orbit similar to that of 1862 Apollo",
            "orbit_class_range": "a (semi-major axis) > 1.0 AU; q (perihelion) < 1.017 AU"
        }
    },
    "is_sentry_object": false
}